IRIDIUM 119             
1 42959U 17061E   25068.88697591  .00000618  00000+0  21350-3 0  9996
2 42959  86.3985 219.2214 0002339  91.4365 268.7099 14.34219320388263
IRIDIUM 107             
1 42960U 17061F   25068.90600381  .00000183  00000+0  58384-4 0  9997
2 42960  86.3986 219.2319 0002394  82.8226 277.3242 14.34218472388288
IRIDIUM 132             
1 42961U 17061G   25068.91234348  .00000176  00000+0  55834-4 0  9994
2 42961  86.3985 219.2122 0002049  90.8665 269.2765 14.34217653388272
IRIDIUM 136             
1 42962U 17061H   25068.87429073  .00000543  00000+0  18684-3 0  9990
2 42962  86.3981 219.2323 0002413  87.8116 272.3356 14.34219062388282
IRIDIUM 139             
1 42963U 17061J   25068.88063310  .00000038  00000+0  63650-5 0  9994
2 42963  86.3986 219.2843 0002069  86.1171 274.0261 14.34214525388299
IRIDIUM 125             
1 42964U 17061K   25068.86794906  .00000211  00000+0  68379-4 0  9990
2 42964  86.3988 219.3419 0002740  91.5774 268.5736 14.34218183388308
IRIDIUM 135             
1 43070U 17083A   25069.19091594  .00000256  00000+0  84266-4 0  9995
2 43070  86.4026 155.9822 0002088 101.4762 258.6668 14.34218789377648
IRIDIUM 138             
1 43071U 17083B   25068.72790905  .00000603  00000+0  20834-3 0  9992
2 43071  86.4018 155.8592 0002778 103.9153 256.2352 14.34218250377568
